{"type": "FeatureCollection", "features": [ {"type": "Feature", "properties": {"norad_id": 36005, "name": "COSMOS 2251 DEB", "group": "cosmos-2251-debris", "lat": 72.77413076186757, "lon": 176.62435500687033, "alt_km": 769.6128464173171, "timestamp": "2025-12-04T15:47:54.496233+00:00", "meta": {"OBJECT_NAME": "COSMOS 2251 DEB", "OBJECT_ID": "1993-036AWX", "EPOCH": "2025-12-03T02:54:52.272576", "MEAN_MOTION": 14.47331723, "ECCENTRICITY": 0.00621511, "INCLINATION": 74.026, "RA_OF_ASC_NODE": 112.0007, "ARG_OF_PERICENTER": 251.2803, "MEAN_ANOMALY": 108.1604, "EPHEMERIS_TYPE": 0, "CLASSIFICATION_TYPE": "U", "NORAD_CAT_ID": 36005, "ELEMENT_SET_NO": 999, "REV_AT_EPOCH": 87445, "BSTAR": 0.00029551015, "MEAN_MOTION_DOT": 1.08e-05, "MEAN_MOTION_DDOT": 0}, "tle": {"line1": "1 36005U 93036AWX 25337.12143834  .00001080  00000+0  29551-3 0  9994", "line2": "2 36005  74.0260 112.0007 0062151 251.2803 108.1604 14.47331723874455"}}, "geometry": {"type": "Point", "coordinates": [176.62435500687033, 72.77413076186757]}}, {"type": "Feature", "properties": {"norad_id": 36045, "name": "COSMOS 2251 DEB", "group": "cosmos-2251-debris", "lat": -28.728217501363332, "lon": -95.79754140122716, "alt_km": 684.1692900251883, "timestamp": "2025-12-04T15:47:54.496244+00:00", "meta": {"OBJECT_NAME": "COSMOS 2251 DEB", "OBJECT_ID": "1993-036AXG", "EPOCH": "2025-12-01T23:07:36.106176", "MEAN_MOTION": 14.69377741, "ECCENTRICITY": 0.00488719, "INCLINATION": 73.7639, "RA_OF_ASC_NODE": 80.3157, "ARG_OF_PERICENTER": 97.908, "MEAN_ANOMALY": 262.764, "EPHEMERIS_TYPE": 0, "CLASSIFICATION_TYPE": "U", "NORAD_CAT_ID": 36045, "ELEMENT_SET_NO": 999, "REV_AT_EPOCH": 8230, "BSTAR": 0.0029815468, "MEAN_MOTION_DOT": 0.0001797, "MEAN_MOTION_DDOT": 0}, "tle": {"line1": "1 36045U 93036AXG 25335.96361234  .00017970  00000+0  29815-2 0  9991", "line2": "2 36045  73.7639  80.3157 0048871  97.9080 262.7640 14.69377741 82309"}}, "geometry": {"type": "Point", "coordinates": [-95.79754140122716, -28.728217501363332]}}, {"type": "Feature", "properties": {"norad_id": 36046, "name": "COSMOS 2251 DEB", "group": "cosmos-2251-debris", "lat": 38.297315734901375, "lon": -54.84721059658094, "alt_km": 643.5115295751066, "timestamp": "2025-12-04T15:47:54.496254+00:00", "meta": {"OBJECT_NAME": "COSMOS 2251 DEB", "OBJECT_ID": "1993-036AXH", "EPOCH": "2025-12-01T14:24:58.053024", "MEAN_MOTION": 14.65147038, "ECCENTRICITY": 0.00552553, "INCLINATION": 74.0167, "RA_OF_ASC_NODE": 297.9586, "ARG_OF_PERICENTER": 87.1353, "MEAN_ANOMALY": 32.6466, "EPHEMERIS_TYPE": 0, "CLASSIFICATION_TYPE": "U", "NORAD_CAT_ID": 36046, "ELEMENT_SET_NO": 999, "REV_AT_EPOCH": 63840, "BSTAR": 0.0006286755, "MEAN_MOTION_DOT": 3.426e-05, "MEAN_MOTION_DDOT": 0}, "tle": {"line1": "1 36046U 93036AXH 25335.60067191  .00003426  00000+0  62868-3 0  9995", "line2": "2 36046  74.0167 297.9586 0055255  87.1353  32.6466 14.65147038638408"}}, "geometry": {"type": "Point", "coordinates": [-54.84721059658094, 38.297315734901375]}}, {"type": "Feature", "properties": {"norad_id": 36047, "name": "COSMOS 2251 DEB", "group": "cosmos-2251-debris", "lat": 12.208532920213438, "lon": 166.92261843625226, "alt_km": 586.8016461120851, "timestamp": "2025-12-04T15:47:54.496265+00:00", "meta": {"OBJECT_NAME": "COSMOS 2251 DEB", "OBJECT_ID": "1993-036AXJ", "EPOCH": "2025-12-03T18:10:50.756160", "MEAN_MOTION": 14.95364522, "ECCENTRICITY": 0.00078423, "INCLINATION": 74.0348, "RA_OF_ASC_NODE": 352.2907, "ARG_OF_PERICENTER": 18.0542, "MEAN_ANOMALY": 342.0919, "EPHEMERIS_TYPE": 0, "CLASSIFICATION_TYPE": "U", "NORAD_CAT_ID": 36047, "ELEMENT_SET_NO": 999, "REV_AT_EPOCH": 65805, "BSTAR": 0.0029851567, "MEAN_MOTION_DOT": 0.00033093, "MEAN_MOTION_DDOT": 0}, "tle": {"line1": "1 36047U 93036AXJ 25337.75753190  .00033093  00000+0  29852-2 0  9993", "line2": "2 36047  74.0348 352.2907 0007842  18.0542 342.0919 14.95364522658050"}}, "geometry": {"type": "Point", "coordinates": [166.92261843625226, 12.208532920213438]}}, {"type": "Feature", "properties": {"norad_id": 36048, "name": "COSMOS 2251 DEB", "group": "cosmos-2251-debris", "lat": -21.611639971541642, "lon": -52.355160402884316, "alt_km": 754.1377702601312, "timestamp": "2025-12-04T15:47:54.496275+00:00", "meta": {"OBJECT_NAME": "COSMOS 2251 DEB", "OBJECT_ID": "1993-036AXK", "EPOCH": "2025-12-03T17:20:47.779872", "MEAN_MOTION": 14.37824674, "ECCENTRICITY": 0.00262269, "INCLINATION": 74.0561, "RA_OF_ASC_NODE": 315.8673, "ARG_OF_PERICENTER": 7.889, "MEAN_ANOMALY": 169.513, "EPHEMERIS_TYPE": 0, "CLASSIFICATION_TYPE": "U", "NORAD_CAT_ID": 36048, "ELEMENT_SET_NO": 999, "REV_AT_EPOCH": 85372, "BSTAR": 0.00041796322, "MEAN_MOTION_DOT": 1.239e-05, "MEAN_MOTION_DDOT": 0}, "tle": {"line1": "1 36048U 93036AXK 25337.72277523  .00001239  00000+0  41796-3 0  9991", "line2": "2 36048  74.0561 315.8673 0026226   7.8890 169.5130 14.37824674853725"}}, "geometry": {"type": "Point", "coordinates": [-52.355160402884316, -21.611639971541642]}}, {"type": "Feature", "properties": {"norad_id": 36049, "name": "COSMOS 2251 DEB", "group": "cosmos-2251-debris", "lat": 71.34044622902047, "lon": -103.34098171677687, "alt_km": 683.5414677033477, "timestamp": "2025-12-04T15:47:54.496286+00:00", "meta": {"OBJECT_NAME": "COSMOS 2251 DEB", "OBJECT_ID": "1993-036AXL", "EPOCH": "2025-12-02T10:47:16.230624", "MEAN_MOTION": 14.61903141, "ECCENTRICITY": 0.00113733, "INCLINATION": 74.0292, "RA_OF_ASC_NODE": 138.8873, "ARG_OF_PERICENTER": 223.356, "MEAN_ANOMALY": 136.6713, "EPHEMERIS_TYPE": 0, "CLASSIFICATION_TYPE": "U", "NORAD_CAT_ID": 36049, "ELEMENT_SET_NO": 999, "REV_AT_EPOCH": 85214, "BSTAR": 0.0017572589, "MEAN_MOTION_DOT": 8.782e-05, "MEAN_MOTION_DDOT": 0}, "tle": {"line1": "1 36049U 93036AXL 25336.44949341  .00008782  00000+0  17573-2 0  9999", "line2": "2 36049  74.0292 138.8873 0011373 223.3560 136.6713 14.61903141852149"}}, "geometry": {"type": "Point", "coordinates": [-103.34098171677687, 71.34044622902047]}}, {"type": "Feature", "properties": {"norad_id": 36050, "name": "COSMOS 2251 DEB", "group": "cosmos-2251-debris", "lat": 55.80408640054275, "lon": 5.557144113259755, "alt_km": 619.7744518023737, "timestamp": "2025-12-04T15:47:54.496323+00:00", "meta": {"OBJECT_NAME": "COSMOS 2251 DEB", "OBJECT_ID": "1993-036AXM", "EPOCH": "2025-12-03T08:51:43.557696", "MEAN_MOTION": 15.00813844, "ECCENTRICITY": 0.00890805, "INCLINATION": 74.0318, "RA_OF_ASC_NODE": 213.1033, "ARG_OF_PERICENTER": 294.9563, "MEAN_ANOMALY": 64.2389, "EPHEMERIS_TYPE": 0, "CLASSIFICATION_TYPE": "U", "NORAD_CAT_ID": 36050, "ELEMENT_SET_NO": 999, "REV_AT_EPOCH": 66894, "BSTAR": 0.00068060745, "MEAN_MOTION_DOT": 9.378e-05, "MEAN_MOTION_DDOT": 0}, "tle": {"line1": "1 36050U 93036AXM 25337.36925414  .00009378  00000+0  68061-3 0  9999", "line2": "2 36050  74.0318 213.1033 0089080 294.9563  64.2389 15.00813844668944"}}, "geometry": {"type": "Point", "coordinates": [5.557144113259755, 55.80408640054275]}}, {"type": "Feature", "properties": {"norad_id": 36053, "name": "COSMOS 2251 DEB", "group": "cosmos-2251-debris", "lat": -40.50644083474635, "lon": 2.503787536358236, "alt_km": 713.9189399074912, "timestamp": "2025-12-04T15:47:54.496335+00:00", "meta": {"OBJECT_NAME": "COSMOS 2251 DEB", "OBJECT_ID": "1993-036AXQ", "EPOCH": "2025-12-01T06:02:04.873920", "MEAN_MOTION": 14.56926822, "ECCENTRICITY": 0.0033176, "INCLINATION": 73.8721, "RA_OF_ASC_NODE": 174.7239, "ARG_OF_PERICENTER": 127.7081, "MEAN_ANOMALY": 232.7098, "EPHEMERIS_TYPE": 0, "CLASSIFICATION_TYPE": "U", "NORAD_CAT_ID": 36053, "ELEMENT_SET_NO": 999, "REV_AT_EPOCH": 87277, "BSTAR": 0.0017117, "MEAN_MOTION_DOT": 7.72e-05, "MEAN_MOTION_DDOT": 0}, "tle": {"line1": "1 36053U 93036AXQ 25335.25144530  .00007720  00000+0  17117-2 0  9994", "line2": "2 36053  73.8721 174.7239 0033176 127.7081 232.7098 14.56926822872773"}}, "geometry": {"type": "Point", "coordinates": [2.503787536358236, -40.50644083474635]}}, {"type": "Feature", "properties": {"norad_id": 36058, "name": "COSMOS 2251 DEB", "group": "cosmos-2251-debris", "lat": -53.26828660516282, "lon": 26.28761998548541, "alt_km": 719.4808740458539, "timestamp": "2025-12-04T15:47:54.496345+00:00", "meta": {"OBJECT_NAME": "COSMOS 2251 DEB", "OBJECT_ID": "1993-036AXV", "EPOCH": "2025-12-02T21:15:38.245248", "MEAN_MOTION": 14.58601869, "ECCENTRICITY": 0.00452241, "INCLINATION": 74.0244, "RA_OF_ASC_NODE": 52.2381, "ARG_OF_PERICENTER": 188.8228, "MEAN_ANOMALY": 171.2148, "EPHEMERIS_TYPE": 0, "CLASSIFICATION_TYPE": "U", "NORAD_CAT_ID": 36058, "ELEMENT_SET_NO": 999, "REV_AT_EPOCH": 65967, "BSTAR": 0.00090546257, "MEAN_MOTION_DOT": 4.247e-05, "MEAN_MOTION_DDOT": 0}, "tle": {"line1": "1 36058U 93036AXV 25336.88585932  .00004247  00000+0  90546-3 0  9993", "line2": "2 36058  74.0244  52.2381 0045224 188.8228 171.2148 14.58601869659675"}}, "geometry": {"type": "Point", "coordinates": [26.28761998548541, -53.26828660516282]}}, {"type": "Feature", "properties": {"norad_id": 36060, "name": "COSMOS 2251 DEB", "group": "cosmos-2251-debris", "lat": -28.395546713508473, "lon": -119.35425989565135, "alt_km": 747.2490791475211, "timestamp": "2025-12-04T15:47:54.496355+00:00", "meta": {"OBJECT_NAME": "COSMOS 2251 DEB", "OBJECT_ID": "1993-036AXX", "EPOCH": "2025-12-04T02:36:53.095968", "MEAN_MOTION": 14.41968213, "ECCENTRICITY": 0.00149828, "INCLINATION": 74.0291, "RA_OF_ASC_NODE": 250.5702, "ARG_OF_PERICENTER": 348.4876, "MEAN_ANOMALY": 11.5935, "EPHEMERIS_TYPE": 0, "CLASSIFICATION_TYPE": "U", "NORAD_CAT_ID": 36060, "ELEMENT_SET_NO": 999, "REV_AT_EPOCH": 84885, "BSTAR": 0.00063718489, "MEAN_MOTION_DOT": 2.066e-05, "MEAN_MOTION_DDOT": 0}, "tle": {"line1": "1 36060U 93036AXX 25338.10894787  .00002066  00000+0  63718-3 0  9992", "line2": "2 36060  74.0291 250.5702 0014982 348.4876  11.5935 14.41968213848851"}}, "geometry": {"type": "Point", "coordinates": [-119.35425989565135, -28.395546713508473]}}]}